[{"OBJECT_NAME":"STARLINK-2219","OBJECT_ID":"2021-041S","EPOCH":"2026-03-09T11:13:09.698304","MEAN_MOTION":15.3021781,"ECCENTRICITY":0.0001494,"INCLINATION":53.1592,"RA_OF_ASC_NODE":127.7423,"ARG_OF_PERICENTER":99.2629,"MEAN_ANOMALY":260.8541,"EPHEMERIS_TYPE":0,"CLASSIFICATION_TYPE":"U","NORAD_CAT_ID":48569,"ELEMENT_SET_NO":999,"REV_AT_EPOCH":26524,"BSTAR":0.00029927791,"MEAN_MOTION_DOT":8.52e-5,"MEAN_MOTION_DDOT":0},{"OBJECT_NAME":"SIMSAT 2","OBJECT_ID":"2000-026B","EPOCH":"2026-03-09T20:25:01.673184","MEAN_MOTION":15.29036787,"ECCENTRICITY":0.00037035,"INCLINATION":86.3514,"RA_OF_ASC_NODE":176.4271,"ARG_OF_PERICENTER":287.9875,"MEAN_ANOMALY":72.0969,"EPHEMERIS_TYPE":0,"CLASSIFICATION_TYPE":"U","NORAD_CAT_ID":26366,"ELEMENT_SET_NO":999,"REV_AT_EPOCH":42803,"BSTAR":0.00013465771,"MEAN_MOTION_DOT":3.833e-5,"MEAN_MOTION_DDOT":0}]
